#aV2015  7 22  0  0  0.00000000     288 DD+AD WGS84 FIT  NGA
## 1854 259200.00000000   300.00000000 57225 0.0000000000000
+   31     1  2  3  4  5  6  7  9 10 11 12 13 14 15 16 17 18
+         19 20 21 22 23 24 25 26 27 28 29 30 31 32  0  0  0
+          0  0  0  0  0  0  0  0  0  0  0  0  0  0  0  0  0
+          0  0  0  0  0  0  0  0  0  0  0  0  0  0  0  0  0
+          0  0  0  0  0  0  0  0  0  0  0  0  0  0  0  0  0
++         2  2  2  2  2  2  2  2  2  2  2  2  2  2  2  2  2
++         2  2  2  2  2  2  2  2  2  2  2  2  2  2  0  0  0
++         0  0  0  0  0  0  0  0  0  0  0  0  0  0  0  0  0
++         0  0  0  0  0  0  0  0  0  0  0  0  0  0  0  0  0
++         0  0  0  0  0  0  0  0  0  0  0  0  0  0  0  0  0
%c cc cc ccc ccc cccc cccc cccc cccc ccccc ccccc ccccc ccccc
%c cc cc ccc ccc cccc cccc cccc cccc ccccc ccccc ccccc ccccc
%f  0.0000000  0.000000000  0.00000000000  0.000000000000000
%f  0.0000000  0.000000000  0.00000000000  0.000000000000000
%i    0    0    0    0      0      0      0      0         0
%i    0    0    0    0      0      0      0      0         0
/*      NGA, ST. LOUIS,MO.                                  
/*   EPHEMERIS COMPUTED FROM  1 DAYS OF DATA                
/*   EPOCHA SMOOTHER                                       
/* CCCCCCCCCCCCCCCCCCCCCCCCCCCCCCCCCCCCCCCCCCCCCCCCCCCCCCCCC
*  2015  7 22  7 40  0.00000000
P  1 -15088.412339   2175.811359  21700.209872     -2.503520                    
V  1  -7562.634203 -26624.794052  -2387.179840      0.005915                    
P  2  14423.573661  19924.483619 -10191.432721    579.716169                    
V  2   1578.470929  13570.390901  27303.636542      0.022392                    
P  3 -21385.029175  10903.341579  11416.326587      9.671955                    
V  3   8197.969479 -12164.630609  26978.663952      0.039574                    
P  4 -16816.541035  -8240.247936  18598.785162     -3.357600                    
V  4  -5744.320042 -23660.140954 -15137.181777     -0.031195                    
P  5  13473.274228   8208.493364 -21431.728196   -215.204941                    
V  5 -18300.983811  20033.555465  -3652.979003      0.043032                    
P  6   6900.933264  25632.423406   1026.527189     21.635140                    
V  6  -3009.234418   -463.530609  31758.156075      0.081085                    
P  7  -8309.410905  17151.242596 -18221.328568    475.823774                    
V  7  -7688.609496 -22248.718496 -17705.916892      0.020808                    
P  9 -16368.945005   9609.864222 -18592.093013     -8.368220                    
V  9 -22628.678387  -6877.699049  16352.301798     -0.020220                    
P 10  -3201.130382  20676.900278 -16504.776985   -183.500562                    
V 10 -15893.252626  13094.006899  20389.448505     -0.015152                    
P 11 -19104.973278  -1694.979628  17877.193543   -592.937272                    
V 11 -12312.442930 -20776.947612 -14573.148237     -0.024289                    
P 12  21168.307109  -7801.222182  13735.688194    312.082683                    
V 12 -11592.213512  13417.586035  25497.679988      0.033437                    
P 13  22105.741937  12966.532308  -6871.902368   -134.305494                    
V 13  -8857.212373   -687.846604 -30502.094771     -0.033370                    
P 14  -1663.028327 -16054.939767  21368.579498     47.211892                    
V 14  25392.186521   7631.238653   7647.080248     -0.026953                    
P 15  26431.818389   3256.788995   2281.485373   -261.827215                    
V 15   2307.491543   3905.388874 -30733.746728     -0.021073                    
P 16 -12171.112782  -8514.063884 -22126.791785   -105.904141                    
V 16  20375.702621 -18888.348908  -3597.372180      0.041188                    
P 17   3474.686943  16038.095103  21224.124225   -181.120783                    
V 17 -25312.688423  -6715.904637   9147.209786     -0.014841                    
P 18  14198.358645 -21714.441883   5409.806938    419.218619                    
V 18   7226.796307  -2004.709154 -30097.128859      0.030760                    
P 19 -25608.963079  -7809.582015   1326.035217   -516.492229                    
V 19  -1115.129655  -2634.039631 -31596.336969     -0.009074                    
P 20  20829.561999  -8405.994802 -14387.528395    340.479632                    
V 20  -9279.741024  15768.933051 -22793.417631      0.032195                    
P 21   5976.988909 -19786.139332 -15786.112265   -465.758048                    
V 21   9188.489996  19711.640380 -20674.031069     -0.031390                    
P 22   3878.244436 -21462.539127  15278.987871    373.584012                    
V 22  14997.001463 -12269.245247 -21553.124964      0.039565                    
P 23 -24819.955911   1201.578860  -9812.338472   -122.498284                    
V 23 -11603.054209  -5480.818498  27775.861179     -0.023304                    
P 24  16001.956886    752.123843  21170.034227     -1.736646                    
V 24   7556.863446  25894.497929  -6474.315165     -0.006000                    
P 25  19366.603483 -17837.637779   2631.609169    -15.953293                    
V 25   -655.517749   4170.628839  32014.225897     -0.045528                    
P 26  -3472.948257 -16912.103502 -20190.353317    -12.514680                    
V 26  18340.615915 -17921.938849  11866.074505     -0.061040                    
P 27 -21517.900312 -12128.711251  -9947.372840      6.122063                    
V 27  12719.604572    734.996398 -28362.426385      0.028138                    
P 28  -9329.304112  20949.662056  13942.447942    455.282260                    
V 28 -13226.709566  10209.233270 -25408.378006      0.026186                    
P 29  18447.921892  -7061.150423 -17718.710657    623.757160                    
V 29  21159.956462   7824.506703  18938.270124      0.021453                    
P 30  -1679.486126  24612.358161  -9747.532561     -8.935201                    
V 30  -5302.190184 -11534.883522 -28309.027791      0.075521                    
P 31  -7292.226594 -25322.772929   -974.972232    309.003068                    
V 31   2221.342161  -2031.084450  32256.619096     -0.012615                    
P 32 -17795.372854  -2738.537602  19318.533989    -93.405416                    
V 32  17335.447462 -17837.501884  13956.072937      0.101586                    
EOF
